SENTINEL-2A             
1 40697U 15028A   21061.51520554  .00000020  00000-0  24352-4 0  9991
2 40697  98.5707 138.0242 0001294  89.4513 270.6841 14.30817487297368
AVUM R/B                
1 40698U 15028B   21061.66666014  .00001610  00000-0  74384-4 0  9996
2 40698  98.6789  30.5479 0251601 252.5831 104.7739 14.98398661310937
